{
  "links" : {
    "next" : "https://api.nasa.gov/neo/rest/v1/feed?start_date=2014-08-16&end_date=2014-08-16&detailed=true&api_key=t0TVs3DtDT2H8Oy2Zy8m2eVrNsAVKAexjcZXUckd",
    "prev" : "https://api.nasa.gov/neo/rest/v1/feed?start_date=2014-08-14&end_date=2014-08-14&detailed=true&api_key=t0TVs3DtDT2H8Oy2Zy8m2eVrNsAVKAexjcZXUckd",
    "self" : "https://api.nasa.gov/neo/rest/v1/feed?start_date=2014-08-15&end_date=2014-08-15&detailed=true&api_key=t0TVs3DtDT2H8Oy2Zy8m2eVrNsAVKAexjcZXUckd"
  },
  "element_count" : 6,
  "near_earth_objects" : {
    "2014-08-15" : [ {
      "links" : {
        "self" : "https://api.nasa.gov/neo/rest/v1/neo/3684354?api_key=t0TVs3DtDT2H8Oy2Zy8m2eVrNsAVKAexjcZXUckd"
      },
      "neo_reference_id" : "3684354",
      "name" : "(2014 QV362)",
      "nasa_jpl_url" : "http://ssd.jpl.nasa.gov/sbdb.cgi?sstr=3684354",
      "absolute_magnitude_h" : 23.4,
      "estimated_diameter" : {
        "kilometers" : {
          "estimated_diameter_min" : 0.0555334912,
          "estimated_diameter_max" : 0.1241766613
        },
        "meters" : {
          "estimated_diameter_min" : 55.5334911581,
          "estimated_diameter_max" : 124.1766612574
        },
        "miles" : {
          "estimated_diameter_min" : 0.0345069009,
          "estimated_diameter_max" : 0.0771597762
        },
        "feet" : {
          "estimated_diameter_min" : 182.1964991311,
          "estimated_diameter_max" : 407.4037573197
        }
      },
      "is_potentially_hazardous_asteroid" : false,
      "close_approach_data" : [ {
        "close_approach_date" : "2014-08-15",
        "epoch_date_close_approach" : 1408086000000,
        "relative_velocity" : {
          "kilometers_per_second" : "3.1008653338",
          "kilometers_per_hour" : "11163.1152018021",
          "miles_per_hour" : "6936.3256652531"
        },
        "miss_distance" : {
          "astronomical" : "0.2409341987",
          "lunar" : "93.7234039307",
          "kilometers" : "36043244",
          "miles" : "22396232"
        },
        "orbiting_body" : "Earth"
      } ],
      "orbital_data" : {
        "orbit_id" : "3",
        "orbit_determination_date" : "2017-04-06 08:39:03",
        "orbit_uncertainty" : "9",
        "minimum_orbit_intersection" : ".236814",
        "jupiter_tisserand_invariant" : "3.588",
        "epoch_osculation" : "2456896.5",
        "eccentricity" : ".4249224923233888",
        "semi_major_axis" : "2.139064523671801",
        "inclination" : "5.639613844595461",
        "ascending_node_longitude" : "20.03335721486038",
        "orbital_period" : "1142.705333419123",
        "perihelion_distance" : "1.230127895032637",
        "perihelion_argument" : "298.8706799223052",
        "aphelion_distance" : "3.048001152310965",
        "perihelion_time" : "2456878.545849468182",
        "mean_anomaly" : "5.656308763445486",
        "mean_motion" : ".3150418480351652",
        "equinox" : "J2000"
      }
    }, {
      "links" : {
        "self" : "https://api.nasa.gov/neo/rest/v1/neo/3703001?api_key=t0TVs3DtDT2H8Oy2Zy8m2eVrNsAVKAexjcZXUckd"
      },
      "neo_reference_id" : "3703001",
      "name" : "(2014 YK14)",
      "nasa_jpl_url" : "http://ssd.jpl.nasa.gov/sbdb.cgi?sstr=3703001",
      "absolute_magnitude_h" : 22.6,
      "estimated_diameter" : {
        "kilometers" : {
          "estimated_diameter_min" : 0.0802703167,
          "estimated_diameter_max" : 0.1794898848
        },
        "meters" : {
          "estimated_diameter_min" : 80.2703167283,
          "estimated_diameter_max" : 179.4898847799
        },
        "miles" : {
          "estimated_diameter_min" : 0.049877647,
          "estimated_diameter_max" : 0.1115298092
        },
        "feet" : {
          "estimated_diameter_min" : 263.3540659348,
          "estimated_diameter_max" : 588.8775935812
        }
      },
      "is_potentially_hazardous_asteroid" : false,
      "close_approach_data" : [ {
        "close_approach_date" : "2014-08-15",
        "epoch_date_close_approach" : 1408086000000,
        "relative_velocity" : {
          "kilometers_per_second" : "10.4536653607",
          "kilometers_per_hour" : "37633.1952986161",
          "miles_per_hour" : "23383.8040454096"
        },
        "miss_distance" : {
          "astronomical" : "0.4378781266",
          "lunar" : "170.3345947266",
          "kilometers" : "65505636",
          "miles" : "40703316"
        },
        "orbiting_body" : "Earth"
      } ],
      "orbital_data" : {
        "orbit_id" : "3",
        "orbit_determination_date" : "2017-04-06 08:36:43",
        "orbit_uncertainty" : "9",
        "minimum_orbit_intersection" : ".184701",
        "jupiter_tisserand_invariant" : "3.944",
        "epoch_osculation" : "2457013.5",
        "eccentricity" : ".4070610280351868",
        "semi_major_axis" : "1.750174087450194",
        "inclination" : "23.59075486290398",
        "ascending_node_longitude" : "84.14877775433453",
        "orbital_period" : "845.7077318886471",
        "perihelion_distance" : "1.037746424172173",
        "perihelion_argument" : "299.7707958050981",
        "aphelion_distance" : "2.462601750728214",
        "perihelion_time" : "2456944.284344453004",
        "mean_anomaly" : "29.46364926955572",
        "mean_motion" : ".4256789744561548",
        "equinox" : "J2000"
      }
    }, {
      "links" : {
        "self" : "https://api.nasa.gov/neo/rest/v1/neo/2054509?api_key=t0TVs3DtDT2H8Oy2Zy8m2eVrNsAVKAexjcZXUckd"
      },
      "neo_reference_id" : "2054509",
      "name" : "54509 YORP (2000 PH5)",
      "nasa_jpl_url" : "http://ssd.jpl.nasa.gov/sbdb.cgi?sstr=2054509",
      "absolute_magnitude_h" : 22.7,
      "estimated_diameter" : {
        "kilometers" : {
          "estimated_diameter_min" : 0.0766575574,
          "estimated_diameter_max" : 0.1714115092
        },
        "meters" : {
          "estimated_diameter_min" : 76.6575573531,
          "estimated_diameter_max" : 171.4115092306
        },
        "miles" : {
          "estimated_diameter_min" : 0.0476327831,
          "estimated_diameter_max" : 0.1065101409
        },
        "feet" : {
          "estimated_diameter_min" : 251.5011804664,
          "estimated_diameter_max" : 562.3737359442
        }
      },
      "is_potentially_hazardous_asteroid" : false,
      "close_approach_data" : [ {
        "close_approach_date" : "2014-08-15",
        "epoch_date_close_approach" : 1408086000000,
        "relative_velocity" : {
          "kilometers_per_second" : "21.6037494491",
          "kilometers_per_hour" : "77773.4980167262",
          "miles_per_hour" : "48325.4271426708"
        },
        "miss_distance" : {
          "astronomical" : "0.4903177485",
          "lunar" : "190.7336120605",
          "kilometers" : "73350496",
          "miles" : "45577884"
        },
        "orbiting_body" : "Earth"
      } ],
      "orbital_data" : {
        "orbit_id" : "85",
        "orbit_determination_date" : "2017-04-06 09:29:01",
        "orbit_uncertainty" : "0",
        "minimum_orbit_intersection" : ".00276915",
        "jupiter_tisserand_invariant" : "6.056",
        "epoch_osculation" : "2452656.5",
        "eccentricity" : ".229915281449521",
        "semi_major_axis" : "1.000041879891727",
        "inclination" : "1.833144648741673",
        "ascending_node_longitude" : "281.886883055542",
        "orbital_period" : "365.2798439455958",
        "perihelion_distance" : ".7701169696151129",
        "perihelion_argument" : "274.1047627359359",
        "aphelion_distance" : "1.229966790168342",
        "perihelion_time" : "2452765.042714405939",
        "mean_anomaly" : "253.0261884585182",
        "mean_motion" : ".9855457561288758",
        "equinox" : "J2000"
      }
    } ]
  }
}